start=new Date('2022-11-23T00:00:00.000Z').valueOf();
sats=[{"COUNTRY_CODE":"US","TLE_LINE1":"1 53159U 22083AD  22326.85523685 -.00001006  00000-0 -45077-4 0  9991","LAUNCH_DATE":"2022-07-17","OBJECT_NAME":"STARLINK-4111","PERIAPSIS":"537.747","SEMIMAJOR_AXIS":"6917.901","DECAY_DATE":null,"MEAN_MOTION_DDOT":"0.0000000000000","REV_AT_EPOCH":"1977","BSTAR":"-0.00004507700000","INCLINATION":"53.2160","CENTER_NAME":"EARTH","MEAN_ANOMALY":"322.8969","PERIOD":"95.438","EPOCH":"2022-11-22T20:31:32.463840","RCS_SIZE":"LARGE","MEAN_MOTION":"15.08833276","ARG_OF_PERICENTER":"37.2225","TLE_LINE2":"2 53159  53.2160 163.8406 0002919  37.2225 322.8969 15.08833276 19778","OBJECT_ID":"2022-083AD","EPHEMERIS_TYPE":"0","MEAN_MOTION_DOT":"-0.00001006","TIME_SYSTEM":"UTC","ECCENTRICITY":"0.00029190","MEAN_ELEMENT_THEORY":"SGP4","GP_ID":"218506885","ELEMENT_SET_NO":"999","OBJECT_TYPE":"PAYLOAD","APOAPSIS":"541.785","NORAD_CAT_ID":"53159","RA_OF_ASC_NODE":"163.8406","REF_FRAME":"TEME","FILE":"3667517","CLASSIFICATION_TYPE":"U","SITE":"AFETR"},{"EPOCH":"2022-11-22T20:47:26.650752","RCS_SIZE":"LARGE","MEAN_MOTION":"15.08833786","COUNTRY_CODE":"US","OBJECT_NAME":"STARLINK-4096","LAUNCH_DATE":"2022-07-17","TLE_LINE1":"1 53160U 22083AE  22326.86628068 -.00000264  00000-0  15229-5 0  9996","SEMIMAJOR_AXIS":"6917.899","PERIAPSIS":"538.613","DECAY_DATE":null,"REV_AT_EPOCH":"1977","MEAN_MOTION_DDOT":"0.0000000000000","BSTAR":"0.00000152290000","INCLINATION":"53.2166","MEAN_ANOMALY":"294.0459","PERIOD":"95.438","CENTER_NAME":"EARTH","OBJECT_TYPE":"PAYLOAD","GP_ID":"218506065","ELEMENT_SET_NO":"999","APOAPSIS":"540.916","NORAD_CAT_ID":"53160","RA_OF_ASC_NODE":"163.7948","REF_FRAME":"TEME","SITE":"AFETR","CLASSIFICATION_TYPE":"U","FILE":"3667517","ARG_OF_PERICENTER":"66.0707","OBJECT_ID":"2022-083AE","TLE_LINE2":"2 53160  53.2166 163.7948 0001664  66.0707 294.0459 15.08833786 19777","EPHEMERIS_TYPE":"0","MEAN_MOTION_DOT":"-0.00000264","TIME_SYSTEM":"UTC","ECCENTRICITY":"0.00016640","MEAN_ELEMENT_THEORY":"SGP4"},{"NORAD_CAT_ID":"53161","RA_OF_ASC_NODE":"163.9045","OBJECT_TYPE":"PAYLOAD","ELEMENT_SET_NO":"999","GP_ID":"218506229","APOAPSIS":"541.066","REF_FRAME":"TEME","SITE":"AFETR","CLASSIFICATION_TYPE":"U","FILE":"3667517","OBJECT_ID":"2022-083AF","TLE_LINE2":"2 53161  53.2193 163.9045 0001851  55.7081 304.4086 15.08826982 19778","EPHEMERIS_TYPE":"0","ARG_OF_PERICENTER":"55.7081","TIME_SYSTEM":"UTC","MEAN_ELEMENT_THEORY":"SGP4","ECCENTRICITY":"0.00018510","MEAN_MOTION_DOT":"0.00000043","RCS_SIZE":"LARGE","MEAN_MOTION":"15.08826982","EPOCH":"2022-11-22T20:15:39.179808","LAUNCH_DATE":"2022-07-17","OBJECT_NAME":"STARLINK-4055","TLE_LINE1":"1 53161U 22083AF  22326.84420347  .00000043  00000-0  20827-4 0  9998","COUNTRY_CODE":"US","REV_AT_EPOCH":"1977","MEAN_MOTION_DDOT":"0.0000000000000","BSTAR":"0.00002082700000","INCLINATION":"53.2193","MEAN_ANOMALY":"304.4086","PERIOD":"95.438","CENTER_NAME":"EARTH","SEMIMAJOR_AXIS":"6917.920","PERIAPSIS":"538.505","DECAY_DATE":null},{"BSTAR":"0.00226270000000","MEAN_MOTION_DDOT":"0.0000000000000","INCLINATION":"53.2179","REV_AT_EPOCH":"1977","CENTER_NAME":"EARTH","PERIOD":"95.447","MEAN_ANOMALY":"296.5876","PERIAPSIS":"538.355","SEMIMAJOR_AXIS":"6918.339","DECAY_DATE":null,"TLE_LINE1":"1 53162U 22083AG  22326.85896680  .00035759  00000-0  22627-2 0  9997","LAUNCH_DATE":"2022-07-17","OBJECT_NAME":"STARLINK-4114","COUNTRY_CODE":"US","MEAN_MOTION":"15.08690012","RCS_SIZE":"LARGE","EPOCH":"2022-11-22T20:36:54.731520","TIME_SYSTEM":"UTC","ECCENTRICITY":"0.00026720","MEAN_ELEMENT_THEORY":"SGP4","MEAN_MOTION_DOT":"0.00035759","TLE_LINE2":"2 53162  53.2179 163.8246 0002672  63.5390 296.5876 15.08690012 19778","OBJECT_ID":"2022-083AG","EPHEMERIS_TYPE":"0","ARG_OF_PERICENTER":"63.5390","REF_FRAME":"TEME","FILE":"3667517","SITE":"AFETR","CLASSIFICATION_TYPE":"U","NORAD_CAT_ID":"53162","RA_OF_ASC_NODE":"163.8246","ELEMENT_SET_NO":"999","GP_ID":"218506722","OBJECT_TYPE":"PAYLOAD","APOAPSIS":"542.052"},{"EPHEMERIS_TYPE":"0","TLE_LINE2":"2 53163  53.2199 164.2326 0001964  44.8283 315.2868 15.08834635 19761","OBJECT_ID":"2022-083AH","ARG_OF_PERICENTER":"44.8283","MEAN_ELEMENT_THEORY":"SGP4","ECCENTRICITY":"0.00019640","TIME_SYSTEM":"UTC","MEAN_MOTION_DOT":"0.00000023","RA_OF_ASC_NODE":"164.2326","NORAD_CAT_ID":"53163","APOAPSIS":"541.120","GP_ID":"218506559","ELEMENT_SET_NO":"999","OBJECT_TYPE":"PAYLOAD","FILE":"3667517","CLASSIFICATION_TYPE":"U","SITE":"AFETR","REF_FRAME":"TEME","TLE_LINE1":"1 53163U 22083AH  22326.77155810  .00000023  00000-0  19528-4 0  9996","LAUNCH_DATE":"2022-07-17","OBJECT_NAME":"STARLINK-4104","COUNTRY_CODE":"US","CENTER_NAME":"EARTH","MEAN_ANOMALY":"315.2868","PERIOD":"95.438","BSTAR":"0.00001952800000","MEAN_MOTION_DDOT":"0.0000000000000","REV_AT_EPOCH":"1976","INCLINATION":"53.2199","DECAY_DATE":null,"PERIAPSIS":"538.403","SEMIMAJOR_AXIS":"6917.897","MEAN_MOTION":"15.08834635","RCS_SIZE":"MEDIUM","EPOCH":"2022-11-22T18:31:02.619840"},{"EPOCH":"2022-11-22T18:45:33.744384","MEAN_MOTION":"15.08833026","RCS_SIZE":"LARGE","PERIAPSIS":"538.515","SEMIMAJOR_AXIS":"6917.902","DECAY_DATE":null,"INCLINATION":"53.2179","MEAN_MOTION_DDOT":"0.0000000000000","BSTAR":"-0.00002462700000","REV_AT_EPOCH":"1976","CENTER_NAME":"EARTH","MEAN_ANOMALY":"306.8762","PERIOD":"95.438","COUNTRY_CODE":"US","TLE_LINE1":"1 53164U 22083AJ  22326.78164056 -.00000680  00000-0 -24627-4 0  9997","OBJECT_NAME":"STARLINK-4116","LAUNCH_DATE":"2022-07-17","REF_FRAME":"TEME","FILE":"3667517","CLASSIFICATION_TYPE":"U","SITE":"AFETR","ELEMENT_SET_NO":"999","GP_ID":"218505738","OBJECT_TYPE":"PAYLOAD","APOAPSIS":"541.018","NORAD_CAT_ID":"53164","RA_OF_ASC_NODE":"164.1774","MEAN_MOTION_DOT":"-0.00000680","TIME_SYSTEM":"UTC","ECCENTRICITY":"0.00018090","MEAN_ELEMENT_THEORY":"SGP4","ARG_OF_PERICENTER":"53.2396","TLE_LINE2":"2 53164  53.2179 164.1774 0001809  53.2396 306.8762 15.08833026 19765","OBJECT_ID":"2022-083AJ","EPHEMERIS_TYPE":"0"},{"NORAD_CAT_ID":"53165","RA_OF_ASC_NODE":"163.9557","OBJECT_TYPE":"PAYLOAD","ELEMENT_SET_NO":"999","GP_ID":"218505902","APOAPSIS":"541.116","REF_FRAME":"TEME","CLASSIFICATION_TYPE":"U","SITE":"AFETR","FILE":"3667517","OBJECT_ID":"2022-083AK","TLE_LINE2":"2 53165  53.2184 163.9557 0002019  53.6197 306.4982 15.08848668 19774","EPHEMERIS_TYPE":"0","ARG_OF_PERICENTER":"53.6197","TIME_SYSTEM":"UTC","ECCENTRICITY":"0.00020190","MEAN_ELEMENT_THEORY":"SGP4","MEAN_MOTION_DOT":"0.00002730","MEAN_MOTION":"15.08848668","RCS_SIZE":"LARGE","EPOCH":"2022-11-22T19:59:43.829088","OBJECT_NAME":"STARLINK-4090","LAUNCH_DATE":"2022-07-17","TLE_LINE1":"1 53165U 22083AK  22326.83314617  .00002730  00000-0  18952-3 0  9993","COUNTRY_CODE":"US","REV_AT_EPOCH":"1977","MEAN_MOTION_DDOT":"0.0000000000000","BSTAR":"0.00018952000000","INCLINATION":"53.2184","MEAN_ANOMALY":"306.4982","PERIOD":"95.437","CENTER_NAME":"EARTH","SEMIMAJOR_AXIS":"6917.854","PERIAPSIS":"538.322","DECAY_DATE":null},{"DECAY_DATE":null,"PERIAPSIS":"538.406","SEMIMAJOR_AXIS":"6917.880","CENTER_NAME":"EARTH","PERIOD":"95.438","MEAN_ANOMALY":"303.1329","INCLINATION":"53.2197","MEAN_MOTION_DDOT":"0.0000000000000","BSTAR":"0.00003988800000","REV_AT_EPOCH":"1977","COUNTRY_CODE":"US","TLE_LINE1":"1 53166U 22083AL  22326.84052156  .00000347  00000-0  39888-4 0  9996","OBJECT_NAME":"STARLINK-4110","LAUNCH_DATE":"2022-07-17","EPOCH":"2022-11-22T20:10:21.062784","RCS_SIZE":"LARGE","MEAN_MOTION":"15.08840110","MEAN_MOTION_DOT":"0.00000347","MEAN_ELEMENT_THEORY":"SGP4","ECCENTRICITY":"0.00019360","TIME_SYSTEM":"UTC","ARG_OF_PERICENTER":"56.9849","EPHEMERIS_TYPE":"0","TLE_LINE2":"2 53166  53.2197 163.9234 0001936  56.9849 303.1329 15.08840110 19771","OBJECT_ID":"2022-083AL","FILE":"3667517","CLASSIFICATION_TYPE":"U","SITE":"AFETR","REF_FRAME":"TEME","APOAPSIS":"541.084","ELEMENT_SET_NO":"999","GP_ID":"218506395","OBJECT_TYPE":"PAYLOAD","RA_OF_ASC_NODE":"163.9234","NORAD_CAT_ID":"53166"},{"RCS_SIZE":"LARGE","MEAN_MOTION":"15.08854039","EPOCH":"2022-11-22T18:51:33.247872","CENTER_NAME":"EARTH","MEAN_ANOMALY":"303.0398","PERIOD":"95.437","MEAN_MOTION_DDOT":"0.0000000000000","BSTAR":"0.00004754300000","REV_AT_EPOCH":"1996","INCLINATION":"53.2168","DECAY_DATE":null,"PERIAPSIS":"538.567","SEMIMAJOR_AXIS":"6917.837","TLE_LINE1":"1 53167U 22083AM  22326.78580148  .00000469  00000-0  47543-4 0  9999","OBJECT_NAME":"STARLINK-3683","LAUNCH_DATE":"2022-07-17","COUNTRY_CODE":"US","FILE":"3667517","CLASSIFICATION_TYPE":"U","SITE":"AFETR","REF_FRAME":"TEME","RA_OF_ASC_NODE":"149.1527","NORAD_CAT_ID":"53167","APOAPSIS":"540.838","ELEMENT_SET_NO":"999","GP_ID":"218506886","OBJECT_TYPE":"PAYLOAD","MEAN_ELEMENT_THEORY":"SGP4","ECCENTRICITY":"0.00016420","TIME_SYSTEM":"UTC","MEAN_MOTION_DOT":"0.00000469","EPHEMERIS_TYPE":"0","TLE_LINE2":"2 53167  53.2168 149.1527 0001642  57.0751 303.0398 15.08854039 19960","OBJECT_ID":"2022-083AM","ARG_OF_PERICENTER":"57.0751"},{"LAUNCH_DATE":"2022-07-17","OBJECT_NAME":"STARLINK-4105","TLE_LINE1":"1 53168U 22083AN  22326.83683700  .00001315  00000-0  10071-3 0  9990","COUNTRY_CODE":"US","PERIOD":"95.437","MEAN_ANOMALY":"312.5589","CENTER_NAME":"EARTH","REV_AT_EPOCH":"1977","MEAN_MOTION_DDOT":"0.0000000000000","BSTAR":"0.00010071000000","INCLINATION":"53.2172","DECAY_DATE":null,"SEMIMAJOR_AXIS":"6917.864","PERIAPSIS":"538.052","RCS_SIZE":"LARGE","MEAN_MOTION":"15.08845375","EPOCH":"2022-11-22T20:05:02.716800","EPHEMERIS_TYPE":"0","OBJECT_ID":"2022-083AN","TLE_LINE2":"2 53168  53.2172 163.9402 0002424  47.5607 312.5589 15.08845375 19774","ARG_OF_PERICENTER":"47.5607","MEAN_ELEMENT_THEORY":"SGP4","ECCENTRICITY":"0.00024240","TIME_SYSTEM":"UTC","MEAN_MOTION_DOT":"0.00001315","RA_OF_ASC_NODE":"163.9402","NORAD_CAT_ID":"53168","APOAPSIS":"541.406","OBJECT_TYPE":"PAYLOAD","ELEMENT_SET_NO":"999","GP_ID":"218506066","CLASSIFICATION_TYPE":"U","SITE":"AFETR","FILE":"3667517","REF_FRAME":"TEME"}];
